NORAD_CAT_ID,OBJECT_NAME,OBJECT_TYPE,EPOCH,MEAN_MOTION,ECCENTRICITY,INCLINATION,RA_OF_ASC_NODE,ARG_OF_PERICENTER,MEAN_ANOMALY,BSTAR,MEAN_MOTION_DOT,MEAN_MOTION_DDOT,TLE_LINE0,TLE_LINE1,TLE_LINE2,SEMIMAJOR_AXIS,PERIOD,APOGEE,PERIGEE,DECAYED
51971.0,STARLINK-3669,PAYLOAD,2023-04-14 10:16:19,15.0804496,0.0001529,53.1567,108.9389,93.4243,266.6923,0.00023672,3.403e-05,0.0,0 STARLINK-3669,1 51971U 22025R   23104.42800340  .00003403  00000-0  23672-3 0  9998,2 51971  53.1567 108.9389 0001529  93.4243 266.6923 15.08044960 61134,6920.312,95.488,543.235,541.118,0.0
51971.0,STARLINK-3669,PAYLOAD,2023-04-15 10:07:51,15.08044502,0.0001553,53.1548,104.4761,105.7244,254.3918,0.0005752,8.683e-05,0.0,0 STARLINK-3669,1 51971U 22025R   23105.42212553  .00008683  00000-0  57520-3 0  9996,2 51971  53.1548 104.4761 0001553 105.7244 254.3918 15.08044502 62392,6920.313,95.488,543.253,541.103,0.0
51971.0,STARLINK-3669,PAYLOAD,2023-04-15 16:29:36,15.08035407,0.0001438,53.1525,103.284,100.0442,260.0712,3.1981e-05,2.12e-06,0.0,0 STARLINK-3669,1 51971U 22025R   23105.68722699  .00000212  00000-0  31981-4 0  9995,2 51971  53.1525 103.2840 0001438 100.0442 260.0712 15.08035407 62437,6920.341,95.488,543.201,541.211,0.0
51971.0,STARLINK-3669,PAYLOAD,2023-04-16 06:48:32,15.0803168,0.0001581,53.1505,100.6066,99.6988,260.4182,-7.4527e-05,-1.446e-05,0.0,0 STARLINK-3669,1 51971U 22025R   23106.28370745 -.00001446  00000-0 -74527-4 0  9998,2 51971  53.1505 100.6066 0001581  99.6988 260.4182 15.08031680 61414,6920.352,95.489,543.311,541.123,0.0
51971.0,STARLINK-3669,PAYLOAD,2023-04-16 16:21:09,15.0803579,0.0001557,53.1506,98.8212,103.6488,256.4677,8.4712e-05,1.033e-05,0.0,0 STARLINK-3669,1 51971U 22025R   23106.68135758  .00001033  00000-0  84712-4 0  9992,2 51971  53.1506  98.8212 0001557 103.6488 256.4677 15.08035790 61476,6920.34,95.488,543.282,541.127,0.0
51971.0,STARLINK-3669,PAYLOAD,2023-04-17 05:04:38,15.08040532,0.0001534,53.1479,96.4377,96.7423,263.3742,0.00022686,3.249e-05,0.0,0 STARLINK-3669,1 51971U 22025R   23107.21155656  .00003249  00000-0  22686-3 0  9993,2 51971  53.1479  96.4377 0001534  96.7423 263.3742 15.08040532 62669,6920.325,95.488,543.252,541.129,0.0
51971.0,STARLINK-3669,PAYLOAD,2023-04-17 06:40:04,15.08043232,0.0001627,53.1482,96.1407,100.6897,259.4277,0.00029137,4.255e-05,0.0,0 STARLINK-3669,1 51971U 22025R   23107.27783101  .00004255  00000-0  29137-3 0  9997,2 51971  53.1482  96.1407 0001627 100.6897 259.4277 15.08043232 61564,6920.317,95.488,543.308,541.056,0.0
51971.0,STARLINK-3669,PAYLOAD,2023-04-18 06:31:40,15.07933607,0.0001845,53.1457,91.6759,113.1816,246.9369,-0.0020862,-0.00032532,0.0,0 STARLINK-3669,1 51971U 22025R   23108.27199378 -.00032532  00000-0 -20862-2 0  9991,2 51971  53.1457  91.6759 0001845 113.1816 246.9369 15.07933607 61711,6920.652,95.495,543.794,541.24,0.0
51971.0,STARLINK-3669,PAYLOAD,2023-04-18 16:04:14,15.08037624,0.0001527,53.1454,89.8905,87.5737,272.5428,6.2955e-05,6.95e-06,0.0,0 STARLINK-3669,1 51971U 22025R   23108.66960833  .00000695  00000-0  62955-4 0  9990,2 51971  53.1454  89.8905 0001527  87.5737 272.5428 15.08037624 62888,6920.334,95.488,543.256,541.142,0.0
51971.0,STARLINK-3669,PAYLOAD,2023-04-19 07:58:35,15.08053182,0.0001128,53.1434,86.9149,86.2125,273.8995,0.00042939,6.409e-05,0.0,0 STARLINK-3669,1 51971U 22025R   23109.33235341  .00006409  00000-0  42939-3 0  9992,2 51971  53.1434  86.9149 0001128  86.2125 273.8995 15.08053182 61876,6920.286,95.487,542.932,541.371,0.0
51971.0,STARLINK-3669,PAYLOAD,2023-04-19 15:55:46,15.08047731,8.98e-05,53.1419,85.4274,91.4213,268.6881,0.00030641,4.49e-05,0.0,0 STARLINK-3669,1 51971U 22025R   23109.66372819  .00004490  00000-0  30641-3 0  9995,2 51971  53.1419  85.4274 0000898  91.4213 268.6881 15.08047731 61926,6920.303,95.488,542.79,541.547,0.0
51971.0,STARLINK-3669,PAYLOAD,2023-04-20 04:39:15,15.08045325,0.0001152,53.1403,83.0443,102.4943,257.6176,0.00024291,3.499e-05,0.0,0 STARLINK-3669,1 51971U 22025R   23110.19392794  .00003499  00000-0  24291-3 0  9991,2 51971  53.1403  83.0443 0001152 102.4943 257.6176 15.08045325 63113,6920.31,95.488,542.973,541.378,0.0
51971.0,STARLINK-3669,PAYLOAD,2023-04-20 07:50:07,15.0804644,0.0001115,53.1392,82.4497,100.6509,259.4608,0.00025099,3.625e-05,0.0,0 STARLINK-3669,1 51971U 22025R   23110.32647676  .00003625  00000-0  25099-3 0  9996,2 51971  53.1392  82.4497 0001115 100.6509 259.4608 15.08046440 62027,6920.307,95.488,542.944,541.4,0.0
51971.0,STARLINK-3669,PAYLOAD,2023-04-21 04:30:48,15.08036561,0.0001315,53.1356,78.5792,97.225,262.889,4.3719e-05,3.95e-06,0.0,0 STARLINK-3669,1 51971U 22025R   23111.18805807  .00000395  00000-0  43719-4 0  9994,2 51971  53.1356  78.5792 0001315  97.2250 262.8890 15.08036561 63268,6920.337,95.488,543.112,541.292,0.0
51971.0,STARLINK-3669,PAYLOAD,2023-04-21 07:41:40,15.08043865,0.0001117,53.1357,77.9835,94.5642,265.5477,0.00018832,2.648e-05,0.0,0 STARLINK-3669,1 51971U 22025R   23111.32060553  .00002648  00000-0  18832-3 0  9991,2 51971  53.1357  77.9835 0001117  94.5642 265.5477 15.08043865 63283,6920.315,95.488,542.953,541.407,0.0
51971.0,STARLINK-3669,PAYLOAD,2023-04-21 22:00:35,15.08043163,0.0001382,53.1352,75.3021,106.2922,253.8221,0.00021182,3.014e-05,0.0,0 STARLINK-3669,1 51971U 22025R   23111.91708065  .00003014  00000-0  21182-3 0  9993,2 51971  53.1352  75.3021 0001382 106.2922 253.8221 15.08043163 62268,6920.317,95.488,543.138,541.226,0.0
51971.0,STARLINK-3669,PAYLOAD,2023-04-22 05:57:46,15.08044127,0.0001248,53.1349,73.815,95.3794,264.7339,0.00027864,4.056e-05,0.0,0 STARLINK-3669,1 51971U 22025R   23112.24845555  .00004056  00000-0  27864-3 0  9996,2 51971  53.1349  73.8150 0001248  95.3794 264.7339 15.08044127 62314,6920.314,95.488,543.043,541.315,0.0
51971.0,STARLINK-3669,PAYLOAD,2023-04-23 05:49:19,15.08036711,9.77e-05,53.1314,69.3485,107.6653,252.4444,3.5445e-05,2.66e-06,0.0,0 STARLINK-3669,1 51971U 22025R   23113.24258192  .00000266  00000-0  35445-4 0  9996,2 51971  53.1314  69.3485 0000977 107.6653 252.4444 15.08036711 63576,6920.337,95.488,542.878,541.526,0.0
51971.0,STARLINK-3669,PAYLOAD,2023-04-24 07:16:17,15.08062361,0.0003018,53.1324,64.5843,68.3186,291.8126,0.0006635,0.00010067,0.0,0 STARLINK-3669,1 51971U 22025R   23114.30297988  .00010067  00000-0  66350-3 0  9998,2 51971  53.1324  64.5843 0003018  68.3186 291.8126 15.08062361 63737,6920.258,95.487,544.212,540.035,0.0
51971.0,STARLINK-3669,PAYLOAD,2023-04-25 03:56:58,15.07992858,0.000134,53.1292,60.7128,70.3649,289.7486,-0.0010421,-0.00016456,0.0,0 STARLINK-3669,1 51971U 22025R   23115.16456448 -.00016456  00000-0 -10421-2 0  9998,2 51971  53.1292  60.7128 0001340  70.3649 289.7486 15.07992858 63869,6920.471,95.491,543.263,541.409,0.0
51971.0,STARLINK-3669,PAYLOAD,2023-04-25 05:32:24,15.07990646,0.0001444,53.1295,60.4157,63.0921,297.0217,-0.0013411,-0.0002108,0.0,0 STARLINK-3669,1 51971U 22025R   23115.23083726 -.00021080  00000-0 -13411-2 0  9992,2 51971  53.1295  60.4157 0001444  63.0921 297.0217 15.07990646 62763,6920.478,95.491,543.342,541.343,0.0
51971.0,STARLINK-3669,PAYLOAD,2023-04-26 03:48:32,15.08028595,0.0001496,53.1275,56.2459,72.2921,287.8233,0.00094765,0.00014497,0.0,0 STARLINK-3669,1 51971U 22025R   23116.15870926  .00014497  00000-0  94765-3 0  9994,2 51971  53.1275  56.2459 0001496  72.2921 287.8233 15.08028595 62905,6920.362,95.489,543.262,541.191,0.0
51971.0,STARLINK-3669,PAYLOAD,2023-04-27 02:04:37,15.08074448,0.0001398,53.127,52.0787,58.4363,301.6764,0.0010318,0.00015833,0.0,0 STARLINK-3669,1 51971U 22025R   23117.08654282  .00015833  00000-0  10318-2 0  9998,2 51971  53.1270  52.0787 0001398  58.4363 301.6764 15.08074448 64156,6920.221,95.486,543.054,541.119,0.0
51971.0,STARLINK-3669,PAYLOAD,2023-04-28 01:56:08,15.08051249,0.0001445,53.1259,47.613,77.2986,282.8166,-0.00024959,-4.172e-05,0.0,0 STARLINK-3669,1 51971U 22025R   23118.08064969 -.00004172  00000-0 -24959-3 0  9999,2 51971  53.1259  47.6130 0001445  77.2986 282.8166 15.08051249 64305,6920.292,95.487,543.157,541.157,0.0
51971.0,STARLINK-3669,PAYLOAD,2023-04-29 04:58:33,15.08036247,0.0001388,53.1242,42.5477,86.0672,274.0477,0.00034343,5.066e-05,0.0,0 STARLINK-3669,1 51971U 22025R   23119.20733125  .00005066  00000-0  34343-3 0  9990,2 51971  53.1242  42.5477 0001388  86.0672 274.0477 15.08036247 64478,6920.338,95.488,543.164,541.243,0.0
51971.0,STARLINK-3669,PAYLOAD,2023-04-30 03:14:39,15.08031695,0.0001503,53.124,38.3787,92.3737,267.7426,1.7094e-05,-2e-07,0.0,0 STARLINK-3669,1 51971U 22025R   23120.13518175 -.00000020  00000-0  17094-4 0  9991,2 51971  53.1240  38.3787 0001503  92.3737 267.7426 15.08031695 64615,6920.352,95.489,543.257,541.177,0.0
51971.0,STARLINK-3669,PAYLOAD,2023-05-01 03:06:12,15.08033478,0.0001454,53.1219,33.9134,91.7267,268.389,0.00014673,1.999e-05,0.0,0 STARLINK-3669,1 51971U 22025R   23121.12931051  .00001999  00000-0  14673-3 0  9997,2 51971  53.1219  33.9134 0001454  91.7267 268.3890 15.08033478 63650,6920.347,95.489,543.218,541.205,0.0
51971.0,STARLINK-3669,PAYLOAD,2023-05-01 22:11:26,15.08046809,0.0001378,53.1211,30.3382,89.2808,270.834,0.00045995,6.885e-05,0.0,0 STARLINK-3669,1 51971U 22025R   23121.92460677  .00006885  00000-0  45995-3 0  9996,2 51971  53.1211  30.3382 0001378  89.2808 270.8340 15.08046809 63779,6920.306,95.488,543.125,541.217,0.0
51971.0,STARLINK-3669,PAYLOAD,2023-05-01 23:46:52,15.08047594,0.0001354,53.1204,30.0402,88.9689,271.1457,0.00046292,6.932e-05,0.0,0 STARLINK-3669,1 51971U 22025R   23121.99088131  .00006932  00000-0  46292-3 0  9998,2 51971  53.1204  30.0402 0001354  88.9689 271.1457 15.08047594 64897,6920.304,95.488,543.106,541.232,0.0
51971.0,STARLINK-3669,PAYLOAD,2023-05-02 02:57:44,15.08045529,0.0001288,53.1199,29.445,86.0643,274.0495,0.00037565,5.569e-05,0.0,0 STARLINK-3669,1 51971U 22025R   23122.12343146  .00005569  00000-0  37565-3 0  9992,2 51971  53.1199  29.4450 0001288  86.0643 274.0495 15.08045529 63800,6920.31,95.488,543.066,541.283,0.0
